NORAD_CAT_ID,OBJECT_NAME,OBJECT_TYPE,EPOCH,MEAN_MOTION,ECCENTRICITY,INCLINATION,RA_OF_ASC_NODE,ARG_OF_PERICENTER,MEAN_ANOMALY,BSTAR,MEAN_MOTION_DOT,MEAN_MOTION_DDOT,TLE_LINE0,TLE_LINE1,TLE_LINE2,SEMIMAJOR_AXIS,PERIOD,APOGEE,PERIGEE,DECAYED
52866.0,STARLINK-4272,PAYLOAD,2023-12-11 14:30:06,15.08818304,0.0001341,53.2167,101.1392,77.8353,282.2789,-0.00012139,-2.218e-05,0.0,0 STARLINK-4272,1 52866U 22062AN  23345.60423657 -.00002218  00000-0 -12139-3 0  9993,2 52866  53.2167 101.1392 0001341  77.8353 282.2789 15.08818304 82277,6917.947,95.439,540.739,538.884,0.0
52866.0,STARLINK-4272,PAYLOAD,2023-12-12 11:10:06,15.08828888,0.0001136,53.2158,97.2681,89.3202,270.792,-0.00010955,-2.03e-05,0.0,0 STARLINK-4272,1 52866U 22062AN  23346.46535733 -.00002030  00000-0 -10955-3 0  9993,2 52866  53.2158  97.2681 0001136  89.3202 270.7920 15.08828888 82891,6917.914,95.438,540.565,538.993,0.0
52866.0,STARLINK-4272,PAYLOAD,2023-12-12 14:20:52,15.08832477,0.0001322,53.2171,96.6754,94.1196,265.9947,-5.5564e-05,-1.172e-05,0.0,0 STARLINK-4272,1 52866U 22062AN  23346.59783430 -.00001172  00000-0 -55564-4 0  9998,2 52866  53.2171  96.6754 0001322  94.1196 265.9947 15.08832477 82426,6917.903,95.438,540.683,538.854,0.0
52866.0,STARLINK-4272,PAYLOAD,2023-12-13 11:00:53,15.08833464,0.0001399,53.2173,92.8103,83.5792,276.536,0.00024222,3.568e-05,0.0,0 STARLINK-4272,1 52866U 22062AN  23347.45894706  .00003568  00000-0  24222-3 0  9998,2 52866  53.2173  92.8103 0001399  83.5792 276.5360 15.08833464 83045,6917.9,95.438,540.733,538.798,0.0
52866.0,STARLINK-4272,PAYLOAD,2023-12-13 14:11:39,15.0883768,0.00015,53.2173,92.2152,92.8541,267.2623,0.00025888,3.834e-05,0.0,0 STARLINK-4272,1 52866U 22062AN  23347.59142439  .00003834  00000-0  25888-3 0  9997,2 52866  53.2173  92.2152 0001500  92.8541 267.2623 15.08837680 82572,6917.887,95.438,540.79,538.715,0.0
52866.0,STARLINK-4272,PAYLOAD,2023-12-14 12:27:02,15.0884776,0.0001538,53.2176,88.0507,93.4802,266.6366,9.3649e-05,1.203e-05,0.0,0 STARLINK-4272,1 52866U 22062AN  23348.51878439  .00001203  00000-0  93649-4 0  9995,2 52866  53.2176  88.0507 0001538  93.4802 266.6366 15.08847760 83208,6917.857,95.437,540.786,538.658,0.0
52866.0,STARLINK-4272,PAYLOAD,2023-12-14 14:02:25,15.08848493,0.0001524,53.2178,87.7533,89.795,270.3217,0.00014574,2.033e-05,0.0,0 STARLINK-4272,1 52866U 22062AN  23348.58502241  .00002033  00000-0  14574-3 0  9998,2 52866  53.2178  87.7533 0001524  89.7950 270.3217 15.08848493 82729,6917.854,95.437,540.774,538.665,0.0
52866.0,STARLINK-4272,PAYLOAD,2023-12-15 12:17:50,15.08842126,0.0001447,53.2179,83.59,107.5,252.6151,-6.9629e-05,-1.396e-05,0.0,0 STARLINK-4272,1 52866U 22062AN  23349.51239022 -.00001396  00000-0 -69629-4 0  9991,2 52866  53.2179  83.5900 0001447 107.5000 252.6151 15.08842126 83358,6917.874,95.437,540.74,538.738,0.0
52866.0,STARLINK-4272,PAYLOAD,2023-12-15 13:53:13,15.08842251,0.0001377,53.218,83.2933,89.4557,270.6593,-7.8093e-05,-1.531e-05,0.0,0 STARLINK-4272,1 52866U 22062AN  23349.57863106 -.00001531  00000-0 -78093-4 0  9999,2 52866  53.2180  83.2933 0001377  89.4557 270.6593 15.08842251 82875,6917.874,95.437,540.691,538.786,0.0
52866.0,STARLINK-4272,PAYLOAD,2023-12-16 12:08:36,15.08851799,0.000136,53.2185,79.137,97.2879,262.8268,-1.1578e-05,-4.72e-06,0.0,0 STARLINK-4272,1 52866U 22062AN  23350.50598253 -.00000472  00000-0 -11578-4 0  9990,2 52866  53.2185  79.1370 0001360  97.2879 262.8268 15.08851799 83505,6917.844,95.437,540.65,538.768,0.0
52866.0,STARLINK-4272,PAYLOAD,2023-12-16 13:43:59,15.08853028,0.0001348,53.2183,78.8375,81.5017,278.6128,1.1746e-05,-1.01e-06,0.0,0 STARLINK-4272,1 52866U 22062AN  23350.57222152 -.00000101  00000-0  11746-4 0  9994,2 52866  53.2183  78.8375 0001348  81.5017 278.6128 15.08853028 83024,6917.841,95.437,540.638,538.773,0.0
52866.0,STARLINK-4272,PAYLOAD,2023-12-17 11:59:24,15.08838413,0.0001433,53.2183,74.6741,67.2723,292.842,9.9282e-05,1.292e-05,0.0,0 STARLINK-4272,1 52866U 22062AN  23351.49958958  .00001292  00000-0  99282-4 0  9998,2 52866  53.2183  74.6741 0001433  67.2723 292.8420 15.08838413 83658,6917.885,95.438,540.742,538.759,0.0
52866.0,STARLINK-4272,PAYLOAD,2023-12-17 13:34:47,15.08841419,0.000148,53.2187,74.3766,66.7119,293.4029,0.00012702,1.734e-05,0.0,0 STARLINK-4272,1 52866U 22062AN  23351.56582773  .00001734  00000-0  12702-3 0  9996,2 52866  53.2187  74.3766 0001480  66.7119 293.4029 15.08841419 83170,6917.876,95.437,540.765,538.717,0.0
52866.0,STARLINK-4272,PAYLOAD,2023-12-18 11:50:10,15.08854383,0.0001718,53.2192,70.2117,58.7538,301.3622,6.409e-05,7.32e-06,0.0,0 STARLINK-4272,1 52866U 22062AN  23352.49317920  .00000732  00000-0  64090-4 0  9994,2 52866  53.2192  70.2117 0001718  58.7538 301.3622 15.08854383 83803,6917.836,95.437,540.89,538.513,0.0
52866.0,STARLINK-4272,PAYLOAD,2023-12-19 11:40:57,15.08847218,0.00014,53.2176,65.753,96.1167,263.9984,5.7832e-05,6.33e-06,0.0,0 STARLINK-4272,1 52866U 22062AN  23353.48678064  .00000633  00000-0  57832-4 0  9999,2 52866  53.2176  65.7530 0001400  96.1167 263.9984 15.08847218 83954,6917.858,95.437,540.692,538.755,0.0
52866.0,STARLINK-4272,PAYLOAD,2023-12-20 11:31:46,15.08835376,0.000168,53.2183,61.2926,75.9353,284.1825,-4.8957e-05,-1.067e-05,0.0,0 STARLINK-4272,1 52866U 22062AN  23354.48039469 -.00001067  00000-0 -48957-4 0  9992,2 52866  53.2183  61.2926 0001680  75.9353 284.1825 15.08835376 84103,6917.895,95.438,540.922,538.597,0.0
52866.0,STARLINK-4272,PAYLOAD,2023-12-21 11:22:32,15.08850983,0.0001557,53.218,56.8299,97.7636,262.3532,0.00034853,5.265e-05,0.0,0 STARLINK-4272,1 52866U 22062AN  23355.47398538  .00005265  00000-0  34853-3 0  9998,2 52866  53.2180  56.8299 0001557  97.7636 262.3532 15.08850983 84252,6917.847,95.437,540.789,538.635,0.0
52866.0,STARLINK-4272,PAYLOAD,2023-12-22 09:37:57,15.08838541,0.0001478,53.2174,52.6709,92.5639,267.5522,7.0657e-05,8.37e-06,0.0,0 STARLINK-4272,1 52866U 22062AN  23356.40135418  .00000837  00000-0  70657-4 0  9991,2 52866  53.2174  52.6709 0001478  92.5639 267.5522 15.08838541 84390,6917.885,95.438,540.772,538.727,0.0
52866.0,STARLINK-4272,PAYLOAD,2023-12-23 11:04:07,15.08844761,0.0001585,53.2175,47.9098,77.9736,282.1434,-1.8679e-05,-5.85e-06,0.0,0 STARLINK-4272,1 52866U 22062AN  23357.46119318 -.00000585  00000-0 -18679-4 0  9997,2 52866  53.2175  47.9098 0001585  77.9736 282.1434 15.08844761 84557,6917.866,95.437,540.827,538.634,0.0
52866.0,STARLINK-4272,PAYLOAD,2023-12-23 12:39:30,15.08847079,0.0001657,53.218,47.609,82.919,277.199,4.9846e-05,5.05e-06,0.0,0 STARLINK-4272,1 52866U 22062AN  23357.52743183  .00000505  00000-0  49846-4 0  9997,2 52866  53.2180  47.6090 0001657  82.9190 277.1990 15.08847079 84075,6917.859,95.437,540.87,538.577,0.0
52866.0,STARLINK-4272,PAYLOAD,2023-12-24 12:30:17,15.08852149,0.0001642,53.218,43.1493,84.9626,275.1553,0.00027592,4.107e-05,0.0,0 STARLINK-4272,1 52866U 22062AN  23358.52103026  .00004107  00000-0  27592-3 0  9999,2 52866  53.2180  43.1493 0001642  84.9626 275.1553 15.08852149 84227,6917.843,95.437,540.844,538.572,0.0
52866.0,STARLINK-4272,PAYLOAD,2023-12-25 02:48:45,15.08839722,0.0001607,53.2183,40.4741,94.1006,266.0169,3.2084e-05,2.23e-06,0.0,0 STARLINK-4272,1 52866U 22062AN  23359.11719694  .00000223  00000-0  32084-4 0  9997,2 52866  53.2183  40.4741 0001607  94.1006 266.0169 15.08839722 84800,6917.881,95.438,540.858,538.635,0.0
52866.0,STARLINK-4272,PAYLOAD,2023-12-25 09:10:18,15.08843837,0.0001701,53.2178,39.2894,86.4092,273.7095,8.7106e-05,1.099e-05,0.0,0 STARLINK-4272,1 52866U 22062AN  23359.38215488  .00001099  00000-0  87106-4 0  9995,2 52866  53.2178  39.2894 0001701  86.4092 273.7095 15.08843837 84358,6917.869,95.437,540.91,538.557,0.0
52866.0,STARLINK-4272,PAYLOAD,2023-12-26 09:01:05,15.08842632,0.0001565,53.2173,34.8295,86.0792,274.0379,-3.2413e-05,-8.04e-06,0.0,0 STARLINK-4272,1 52866U 22062AN  23360.37575948 -.00000804  00000-0 -32413-4 0  9992,2 52866  53.2173  34.8295 0001565  86.0792 274.0379 15.08842632 84991,6917.872,95.437,540.82,538.655,0.0
52866.0,STARLINK-4272,PAYLOAD,2023-12-26 12:11:51,15.08846416,0.00014,53.2168,34.2275,98.0397,262.0754,-1.2647e-05,-4.89e-06,0.0,0 STARLINK-4272,1 52866U 22062AN  23360.50823381 -.00000489  00000-0 -12647-4 0  9990,2 52866  53.2168  34.2275 0001400  98.0397 262.0754 15.08846416 84526,6917.861,95.437,540.694,538.757,0.0
52866.0,STARLINK-4272,PAYLOAD,2023-12-27 08:51:51,15.08849793,0.0001378,53.2174,30.36,108.9473,251.1668,1.9109e-05,1.6e-07,0.0,0 STARLINK-4272,1 52866U 22062AN  23361.36935116  .00000016  00000-0  19109-4 0  9999,2 52866  53.2174  30.3600 0001378 108.9473 251.1668 15.08849793 84650,6917.85,95.437,540.669,538.762,0.0
52866.0,STARLINK-4272,PAYLOAD,2023-12-28 07:07:16,15.08834847,0.0001656,53.2177,26.2006,106.1064,254.0111,9.7737e-05,1.268e-05,0.0,0 STARLINK-4272,1 52866U 22062AN  23362.29672155  .00001268  00000-0  97737-4 0  9996,2 52866  53.2177  26.2006 0001656 106.1064 254.0111 15.08834847 85281,6917.896,95.438,540.907,538.616,0.0
52866.0,STARLINK-4272,PAYLOAD,2023-12-29 06:58:04,15.0883605,0.0001813,53.2191,21.7484,112.786,247.3324,1.7074e-05,-1.6e-07,0.0,0 STARLINK-4272,1 52866U 22062AN  23363.29032572 -.00000016  00000-0  17074-4 0  9997,2 52866  53.2191  21.7484 0001813 112.7860 247.3324 15.08836050 84940,6917.892,95.438,541.012,538.503,0.0
52866.0,STARLINK-4272,PAYLOAD,2023-12-30 09:59:37,15.08840722,0.0001755,53.2188,16.6849,107.29,252.8284,0.00011398,1.526e-05,0.0,0 STARLINK-4272,1 52866U 22062AN  23364.41640203  .00001526  00000-0  11398-3 0  9996,2 52866  53.2188  16.6849 0001755 107.2900 252.8284 15.08840722 85604,6917.878,95.438,540.957,538.529,0.0
52866.0,STARLINK-4272,PAYLOAD,2023-12-31 09:50:24,15.08837281,0.0001613,53.2188,12.2234,94.9977,265.1199,7.6077e-05,9.23e-06,0.0,0 STARLINK-4272,1 52866U 22062AN  23365.41000875  .00000923  00000-0  76077-4 0  9998,2 52866  53.2188  12.2234 0001613  94.9977 265.1199 15.08837281 85757,6917.889,95.438,540.87,538.638,0.0
